{
  "type": "FeatureCollection",
  "name": "Batas Desa Madat",
  "crs": {
    "type": "name",
    "properties": { "name": "urn:ogc:def:crs:OGC:1.3:CRS84" }
  },
  "bbox": [
    97.4985125571832, 5.10059997513935, 97.5242287013254, 5.11661963430669
  ],
  "features": [
    {
      "type": "Feature",
      "properties": { "id": 1, "nama_dusun": "ALI TAWIL" },
      "bbox": [
        97.512586974782494, 5.105341958350357, 97.524228701325427,
        5.112597258479286
      ],
      "geometry": {
        "type": "MultiPolygon",
        "coordinates": [
          [
            [
              [97.512586974782494, 5.107614754472853],
              [97.513075457211713, 5.108253660284392],
              [97.513357130907124, 5.10850233394874],
              [97.513800446893669, 5.109236398914343],
              [97.513984495046927, 5.109748091910922],
              [97.513978093372032, 5.110529180120843],
              [97.513904474110731, 5.110924506035566],
              [97.51380204731241, 5.1111927058368],
              [97.513753471954672, 5.111580930771027],
              [97.513707148282862, 5.111709075917693],
              [97.51503975761328, 5.111737117664414],
              [97.51506056411921, 5.112597258479286],
              [97.515975152200312, 5.112233972104425],
              [97.515900777913004, 5.111605487930748],
              [97.516716233768747, 5.111398477133659],
              [97.517147801860304, 5.111291318577122],
              [97.517170904404779, 5.111286574915872],
              [97.517705294919125, 5.111078219121647],
              [97.517609139591698, 5.110839458348479],
              [97.519264448416592, 5.110051463008183],
              [97.518821409878129, 5.108987061609895],
              [97.520040982997656, 5.108468195594816],
              [97.519925659092394, 5.108158451780445],
              [97.521317761642791, 5.107684137332328],
              [97.521186310647863, 5.107378636211229],
              [97.522362066769062, 5.10683067351815],
              [97.522690237829337, 5.106654585849761],
              [97.523470423826964, 5.106115108698907],
              [97.524228701325427, 5.106133293329361],
              [97.524190057167274, 5.105341958350357],
              [97.522817606089248, 5.105551719059299],
              [97.519105365763565, 5.106186130141259],
              [97.517796017771815, 5.10642324860546],
              [97.513967890702574, 5.107079632364522],
              [97.512586974782494, 5.107614754472853]
            ]
          ]
        ]
      }
    },
    {
      "type": "Feature",
      "properties": { "id": 2, "nama_dusun": "COT MADAT" },
      "bbox": [
        97.509951066727794, 5.100599975139348, 97.524185797181332,
        5.107612319036932
      ],
      "geometry": {
        "type": "MultiPolygon",
        "coordinates": [
          [
            [
              [97.517201245937557, 5.101746236291004],
              [97.513994853046142, 5.101878104609177],
              [97.509951066727794, 5.10214479324608],
              [97.510037323082372, 5.102748996614035],
              [97.510145143525691, 5.103183238250431],
              [97.510236556510193, 5.104249230182441],
              [97.510352346290574, 5.104714754793701],
              [97.510555197826037, 5.105392710659006],
              [97.510747248072931, 5.105748985065023],
              [97.511224973062042, 5.106117214780007],
              [97.512062792264075, 5.106581088275817],
              [97.512219387984899, 5.10690587986682],
              [97.512848424175104, 5.106729662328984],
              [97.513059394907685, 5.107201884811115],
              [97.512493774005904, 5.107277121784741],
              [97.512583877598843, 5.107612319036932],
              [97.513959588530469, 5.107080080685451],
              [97.517778323880037, 5.106370377604147],
              [97.524185797181332, 5.105275887442371],
              [97.524141371613595, 5.104813997051473],
              [97.523363924178526, 5.10498220520479],
              [97.52328973666819, 5.104039488498847],
              [97.523261916351828, 5.103006712758599],
              [97.523130929028866, 5.103020856428653],
              [97.522074336596205, 5.100599975139348],
              [97.520307746505736, 5.101189970180911],
              [97.518348095011305, 5.101631369247763],
              [97.518270806694844, 5.1013470808043],
              [97.517221328728425, 5.101511046755609],
              [97.517240194380477, 5.101740780864613],
              [97.517201245937557, 5.101746236291004]
            ]
          ]
        ]
      }
    },
    {
      "type": "Feature",
      "properties": { "id": 3, "nama_dusun": "ABEUK GADENG" },
      "bbox": [
        97.504130033294132, 5.107279252792289, 97.513978193398174,
        5.112158937056765
      ],
      "geometry": {
        "type": "MultiPolygon",
        "coordinates": [
          [
            [
              [97.512581027852079, 5.107617479683537],
              [97.512486438570932, 5.107279252792289],
              [97.509489302093684, 5.107768471051383],
              [97.504130033294132, 5.107738149880761],
              [97.504733495078767, 5.109497506033481],
              [97.50448409028931, 5.109691366133619],
              [97.50500197199932, 5.110290481147742],
              [97.505781484223675, 5.111661137292436],
              [97.505801045383635, 5.111695233179048],
              [97.506502312968138, 5.112158937056765],
              [97.506687165929748, 5.111722509887028],
              [97.507228032002573, 5.111987483561265],
              [97.507368872354263, 5.111613403048132],
              [97.507574264533829, 5.111691336506385],
              [97.507482411682147, 5.111323056687333],
              [97.50824606886205, 5.111114011951622],
              [97.508256183526683, 5.111169421406287],
              [97.508534336804132, 5.111106456116524],
              [97.508703757436763, 5.11181670422619],
              [97.508827662078531, 5.11189981831521],
              [97.510097052490153, 5.111033416372646],
              [97.510205785134971, 5.111176977240642],
              [97.510577863580465, 5.111004301631193],
              [97.510871441392084, 5.111462227405269],
              [97.511037617511874, 5.111373952582726],
              [97.511272706301781, 5.111760417119711],
              [97.511674492430316, 5.111877373503231],
              [97.512370036020499, 5.111605529426586],
              [97.512842614016819, 5.111863839566492],
              [97.5132402711113, 5.111467763976042],
              [97.513756072704837, 5.11142184215261],
              [97.51374238729737, 5.111580930771027],
              [97.513798146291691, 5.111195744504014],
              [97.513898972671285, 5.110938703093215],
              [97.513975792770069, 5.110533414333655],
              [97.513978193398174, 5.109755115731328],
              [97.513795745663643, 5.109243422740362],
              [97.513355230409857, 5.108493815681786],
              [97.513059352998255, 5.108245739787491],
              [97.512581027852079, 5.107617479683537]
            ]
          ]
        ]
      }
    },
    {
      "type": "Feature",
      "properties": { "id": 4, "nama_dusun": "KAYEE UNOE" },
      "bbox": [
        97.498512557183204, 5.102146660954431, 97.513050737283166,
        5.116619634306688
      ],
      "geometry": {
        "type": "MultiPolygon",
        "coordinates": [
          [
            [
              [97.509466073216245, 5.107753858439222],
              [97.512488883715946, 5.107269206613794],
              [97.513050737283166, 5.107197807708351],
              [97.512845345103599, 5.106737996943353],
              [97.51221677983024, 5.106911075469164],
              [97.512049749258836, 5.106589958300603],
              [97.511221672198488, 5.106127227516882],
              [97.510752349407682, 5.105761388910341],
              [97.510554297590602, 5.105401527855186],
              [97.510337345185405, 5.104724093297993],
              [97.510218273913324, 5.104251564810223],
              [97.510111391039089, 5.1031888413664],
              [97.510011071148341, 5.102755533587083],
              [97.509924814793763, 5.102146660954431],
              [97.506653767060115, 5.102290292165658],
              [97.506909022085509, 5.103588803901357],
              [97.505844894983809, 5.10375116729456],
              [97.505486273717892, 5.104195393328341],
              [97.505524091960481, 5.104581168318618],
              [97.504349118285703, 5.104986426644366],
              [97.504609933751794, 5.105480010156774],
              [97.504019186721067, 5.105620291717289],
              [97.504077870200945, 5.105960604264351],
              [97.504012666334404, 5.105974892191767],
              [97.504150083483154, 5.107678238165965],
              [97.503047812119533, 5.107666548074614],
              [97.503048301148482, 5.107718666396886],
              [97.503445392695625, 5.109033800229397],
              [97.502957341754694, 5.109242273048382],
              [97.503111874918346, 5.109742997205673],
              [97.500711720591497, 5.110872060552388],
              [97.499052934227123, 5.11157833298881],
              [97.499277887566649, 5.112190110414638],
              [97.499125310518963, 5.112254405460488],
              [97.499385473946418, 5.112988927192854],
              [97.499289624262616, 5.113053222158504],
              [97.499555656038027, 5.113735138063499],
              [97.499120909257954, 5.113919742315718],
              [97.499215780883688, 5.114171076779344],
              [97.49870914684081, 5.114373702941748],
              [97.498838250496533, 5.114683487046825],
              [97.498512557183204, 5.114793567526051],
              [97.498993761718168, 5.116348330502646],
              [97.499122865373906, 5.116208051291354],
              [97.499491593239171, 5.116619634306688],
              [97.500831532696253, 5.115587997325898],
              [97.503720716022073, 5.11310680129162],
              [97.505762901121628, 5.111671366058602],
              [97.504971652201377, 5.110308503298013],
              [97.504460616897362, 5.109690391962408],
              [97.504705620425938, 5.109490199747147],
              [97.504096290293248, 5.10772694687762],
              [97.509466073216245, 5.107753858439222]
            ]
          ]
        ]
      }
    }
  ]
}
